NORAD_CAT_ID,OBJECT_NAME,OBJECT_TYPE,EPOCH,MEAN_MOTION,ECCENTRICITY,INCLINATION,RA_OF_ASC_NODE,ARG_OF_PERICENTER,MEAN_ANOMALY,BSTAR,MEAN_MOTION_DOT,MEAN_MOTION_DDOT,TLE_LINE0,TLE_LINE1,TLE_LINE2,SEMIMAJOR_AXIS,PERIOD,APOGEE,PERIGEE,DECAYED
52122.0,STARLINK-3726,PAYLOAD,2023-01-25 07:50:16,15.08836789,0.0001343,53.2151,153.9324,82.0759,278.0385,8.8857e-05,1.126e-05,0.0,0 STARLINK-3726,1 52122U 22029AL  23025.32657508  .00001126  00000-0  88857-4 0  9995,2 52122  53.2151 153.9324 0001343  82.0759 278.0385 15.08836789 48785,6917.89,95.438,540.684,538.826,0.0
52122.0,STARLINK-3726,PAYLOAD,2023-01-25 14:11:48,15.08837453,0.0001302,53.2168,152.7436,98.7528,261.3611,6.9463e-05,8.18e-06,0.0,0 STARLINK-3726,1 52122U 22029AL  23025.59153528  .00000818  00000-0  69463-4 0  9996,2 52122  53.2168 152.7436 0001302  98.7528 261.3611 15.08837453 48828,6917.888000000001,95.438,540.654,538.852,0.0
52122.0,STARLINK-3726,PAYLOAD,2023-01-25 15:47:11,15.08844765,0.0001200999999999,53.2154,152.4443,90.737,269.376,0.00011316,1.514e-05,0.0,0 STARLINK-3726,1 52122U 22029AL  23025.65776983  .00001514  00000-0  11316-3 0  9996,2 52122  53.2154 152.4443 0001201  90.7370 269.3760 15.08844765 48831,6917.866,95.437,540.562,538.9,0.0
52122.0,STARLINK-3726,PAYLOAD,2023-01-26 01:19:30,15.08838685,0.0001364,53.2163,150.659,94.9142,265.2006,0.00011309,1.512e-05,0.0,0 STARLINK-3726,1 52122U 22029AL  23026.05521420  .00001512  00000-0  11309-3 0  9995,2 52122  53.2163 150.6590 0001364  94.9142 265.2006 15.08838685 48895,6917.884,95.438,540.693,538.806,0.0
52122.0,STARLINK-3726,PAYLOAD,2023-01-26 14:02:35,15.08841574,0.0001112,53.2179,148.282,96.2604,263.8515,7.8766e-05,9.66e-06,0.0,0 STARLINK-3726,1 52122U 22029AL  23026.58513356  .00000966  00000-0  78766-4 0  9995,2 52122  53.2179 148.2820 0001112  96.2604 263.8515 15.08841574 48979,6917.876,95.437,540.51,538.971,0.0
52122.0,STARLINK-3726,PAYLOAD,2023-01-27 07:31:52,15.08812965,0.0001291,53.2169,145.0107,99.0944,261.0194,-0.00016034,-2.837e-05,0.0,0 STARLINK-3726,1 52122U 22029AL  23027.31379977 -.00002837  00000-0 -16034-3 0  9996,2 52122  53.2169 145.0107 0001291  99.0944 261.0194 15.08812965 49085,6917.963000000001,95.439,540.721,538.935,0.0
52122.0,STARLINK-3726,PAYLOAD,2023-01-27 13:53:24,15.08818486,0.0001358,53.2164,143.8214,83.0129,277.1017,-0.00012852,-2.331e-05,0.0,0 STARLINK-3726,1 52122U 22029AL  23027.57875974 -.00002331  00000-0 -12852-3 0  9995,2 52122  53.2164 143.8214 0001358  83.0129 277.1017 15.08818486 49128,6917.946,95.439,540.751,538.872,0.0
52122.0,STARLINK-3726,PAYLOAD,2023-01-28 01:01:06,15.08830479,0.0001406999999999,53.2178,141.7402,95.019,265.0963,2.2549e-05,7.1e-07,0.0,0 STARLINK-3726,1 52122U 22029AL  23028.04243200  .00000071  00000-0  22549-4 0  9991,2 52122  53.2178 141.7402 0001407  95.0190 265.0963 15.08830479 49194,6917.909000000001,95.438,540.748,538.8009999999999,0.0
52122.0,STARLINK-3726,PAYLOAD,2023-01-28 12:08:47,15.08838826,8.06e-05,53.2164,139.6587,88.4521,271.6563,0.00016456,2.332e-05,0.0,0 STARLINK-3726,1 52122U 22029AL  23028.50610337  .00002332  00000-0  16456-3 0  9992,2 52122  53.2164 139.6587 0000806  88.4521 271.6563 15.08838826 49266,6917.884,95.438,540.307,539.191,0.0
52122.0,STARLINK-3726,PAYLOAD,2023-01-28 13:44:10,15.08848849,0.0001272,53.2164,139.3601,93.4157,266.6981,0.00014708,2.054e-05,0.0,0 STARLINK-3726,1 52122U 22029AL  23028.57233856  .00002054  00000-0  14708-3 0  9995,2 52122  53.2164 139.3601 0001272  93.4157 266.6981 15.08848849 49274,6917.853,95.437,540.598,538.838,0.0
52122.0,STARLINK-3726,PAYLOAD,2023-01-28 16:54:56,15.08851756,0.0001124,53.2151,138.764,100.4465,259.6654,0.00016403,2.324e-05,0.0,0 STARLINK-3726,1 52122U 22029AL  23028.70481517  .00002324  00000-0  16403-3 0  9993,2 52122  53.2151 138.7640 0001124 100.4465 259.6654 15.08851756 49295,6917.844,95.437,540.487,538.932,0.0
52122.0,STARLINK-3726,PAYLOAD,2023-01-29 10:24:10,15.08836787,0.0001367,53.2138,135.4939,101.3051,258.8095,0.00031504,4.729e-05,0.0,0 STARLINK-3726,1 52122U 22029AL  23029.43346013  .00004729  00000-0  31504-3 0  9995,2 52122  53.2138 135.4939 0001367 101.3051 258.8095 15.08836787 49405,6917.89,95.438,540.701,538.81,0.0
52122.0,STARLINK-3726,PAYLOAD,2023-01-29 16:45:42,15.0884786,0.0001319,53.2155,134.3035,110.3945,249.7189,0.00033525,5.053e-05,0.0,0 STARLINK-3726,1 52122U 22029AL  23029.69841313  .00005053  00000-0  33525-3 0  9992,2 52122  53.2155 134.3035 0001319 110.3945 249.7189 15.08847860 49449,6917.856,95.437,540.634,538.809,0.0
52122.0,STARLINK-3726,PAYLOAD,2023-01-30 05:28:48,15.08845885,0.0001407,53.2157,131.9241,121.1758,238.9372,1.0232e-05,-1.25e-06,0.0,0 STARLINK-3726,1 52122U 22029AL  23030.22834089 -.00000125  00000-0  10232-4 0  9992,2 52122  53.2157 131.9241 0001407 121.1758 238.9372 15.08845885 49521,6917.862,95.437,540.701,538.754,0.0
52122.0,STARLINK-3726,PAYLOAD,2023-01-30 11:50:21,15.0884441,0.0001203,53.2172,130.736,108.611,251.5012,6.1287e-05,6.88e-06,0.0,0 STARLINK-3726,1 52122U 22029AL  23030.49330058  .00000688  00000-0  61287-4 0  9997,2 52122  53.2172 130.7360 0001203 108.6110 251.5012 15.08844410 49562,6917.867,95.437,540.564,538.9,0.0
52122.0,STARLINK-3726,PAYLOAD,2023-01-31 06:54:59,15.08841685,0.0001372,53.2169,127.1684,112.6893,247.4244,-6.5965e-05,-1.338e-05,0.0,0 STARLINK-3726,1 52122U 22029AL  23031.28818306 -.00001338  00000-0 -65965-4 0  9994,2 52122  53.2169 127.1684 0001372 112.6893 247.4244 15.08841685 49682,6917.875,95.437,540.689,538.791,0.0
52122.0,STARLINK-3726,PAYLOAD,2023-01-31 11:41:08,15.08843809,0.0001364,53.217,126.2766,109.7309,250.383,-2.7473e-05,-7.25e-06,0.0,0 STARLINK-3726,1 52122U 22029AL  23031.48690028 -.00000725  00000-0 -27473-4 0  9996,2 52122  53.2170 126.2766 0001364 109.7309 250.3830 15.08843809 49713,6917.869,95.437,540.677,538.79,0.0
52122.0,STARLINK-3726,PAYLOAD,2023-01-31 16:27:17,15.08850261,0.0001333,53.2171,125.3844,109.4097,250.7039,-1.3985e-05,-5.11e-06,0.0,0 STARLINK-3726,1 52122U 22029AL  23031.68561482 -.00000511  00000-0 -13985-4 0  9995,2 52122  53.2171 125.3844 0001333 109.4097 250.7039 15.08850261 49746,6917.849,95.437,540.636,538.792,0.0
52122.0,STARLINK-3726,PAYLOAD,2023-01-31 22:48:49,15.08844504,9.83e-05,53.2162,124.1936,100.5847,259.5256,-6.2987e-05,-1.29e-05,0.0,0 STARLINK-3726,1 52122U 22029AL  23031.95057762 -.00001290  00000-0 -62987-4 0  9997,2 52122  53.2162 124.1936 0000983 100.5847 259.5256 15.08844504 49785,6917.867,95.437,540.412,539.052,0.0
52122.0,STARLINK-3726,PAYLOAD,2023-02-01 11:31:55,15.08839477,0.0001188,53.2161,121.8153,106.8924,253.2198,0.00010322,1.355e-05,0.0,0 STARLINK-3726,1 52122U 22029AL  23032.48049879  .00001355  00000-0  10322-3 0  9991,2 52122  53.2161 121.8153 0001188 106.8924 253.2198 15.08839477 49860,6917.882,95.438,540.569,538.925,0.0
52122.0,STARLINK-3726,PAYLOAD,2023-02-01 22:39:37,15.08836739,0.0001043,53.2163,119.7345,100.3612,259.7498,7.9914e-05,9.84e-06,0.0,0 STARLINK-3726,1 52122U 22029AL  23032.94418178  .00000984  00000-0  79914-4 0  9994,2 52122  53.2163 119.7345 0001043 100.3612 259.7498 15.08836739 49934,6917.89,95.438,540.477,539.034,0.0
52122.0,STARLINK-3726,PAYLOAD,2023-02-02 12:58:05,15.08838659,0.0001299,53.2176,117.058,93.9011,266.2129,2.5213e-05,1.13e-06,0.0,0 STARLINK-3726,1 52122U 22029AL  23033.54034539  .00000113  00000-0  25213-4 0  9993,2 52122  53.2176 117.0580 0001299  93.9011 266.2129 15.08838659 50022,6917.884,95.438,540.648,538.851,0.0
52122.0,STARLINK-3726,PAYLOAD,2023-02-03 04:51:57,15.08834209,0.0001115,53.2157,114.0837,100.3669,259.7449,5.1863e-05,5.38e-06,0.0,0 STARLINK-3726,1 52122U 22029AL  23034.20274834  .00000538  00000-0  51863-4 0  9992,2 52122  53.2157 114.0837 0001115 100.3669 259.7449 15.08834209 50122,6917.898,95.438,540.534,538.992,0.0
52122.0,STARLINK-3726,PAYLOAD,2023-02-03 09:38:06,15.08835582,0.0001245,53.2168,113.1925,100.0911,260.0222,3.1155e-05,2.08e-06,0.0,0 STARLINK-3726,1 52122U 22029AL  23034.40146940  .00000208  00000-0  31155-4 0  9996,2 52122  53.2168 113.1925 0001245 100.0911 260.0222 15.08835582 50155,6917.894,95.438,540.62,538.898,0.0
52122.0,STARLINK-3726,PAYLOAD,2023-02-04 11:04:16,15.088431,0.0001181,53.2147,108.433,97.2888,262.8238,9.8695e-05,1.283e-05,0.0,0 STARLINK-3726,1 52122U 22029AL  23035.46130410  .00001283  00000-0  98695-4 0  9994,2 52122  53.2147 108.4330 0001181  97.2888 262.8238 15.08843100 50318,6917.871,95.437,540.553,538.919,0.0
52122.0,STARLINK-3726,PAYLOAD,2023-02-04 14:15:02,15.08847326,0.0001214,53.2146,107.838,97.7792,262.3338,0.00013432,1.851e-05,0.0,0 STARLINK-3726,1 52122U 22029AL  23035.59378038  .00001851  00000-0  13432-3 0  9994,2 52122  53.2146 107.8380 0001214  97.7792 262.3338 15.08847326 50333,6917.858,95.437,540.563,538.883,0.0
52122.0,STARLINK-3726,PAYLOAD,2023-02-04 22:11:58,15.08838497,0.0001173,53.2151,106.3516,100.2115,259.9009,6.2441e-05,7.06e-06,0.0,0 STARLINK-3726,1 52122U 22029AL  23035.92498734  .00000706  00000-0  62441-4 0  9990,2 52122  53.2151 106.3516 0001173 100.2115 259.9009 15.08838497 50388,6917.885,95.438,540.561,538.939,0.0
52122.0,STARLINK-3726,PAYLOAD,2023-02-05 10:55:04,15.08839997,0.0001309,53.2158,103.9746,88.6949,271.4193,7.1629e-05,8.52e-06,0.0,0 STARLINK-3726,1 52122U 22029AL  23036.45490866  .00000852  00000-0  71629-4 0  9997,2 52122  53.2158 103.9746 0001309  88.6949 271.4193 15.08839997 50466,6917.88,95.438,540.651,538.84,0.0
52122.0,STARLINK-3726,PAYLOAD,2023-02-06 10:45:50,15.08849656,0.0001304,53.2163,99.5136,93.8167,266.2974,9.3003e-05,1.193e-05,0.0,0 STARLINK-3726,1 52122U 22029AL  23037.44850162  .00001193  00000-0  93003-4 0  9995,2 52122  53.2163  99.5136 0001304  93.8167 266.2974 15.08849656 50619,6917.851,95.437,540.618,538.814,0.0
52122.0,STARLINK-3726,PAYLOAD,2023-02-06 13:56:36,15.08859202,0.0001421,53.2155,98.9164,111.3309,248.7835,4.1629e-05,3.75e-06,0.0,0 STARLINK-3726,1 52122U 22029AL  23037.58097459  .00000375  00000-0  41629-4 0  9990,2 52122  53.2155  98.9164 0001421 111.3309 248.7835 15.08859202 50639,6917.822,95.436,540.67,538.704,0.0
